HULIANWANG DIGUI-01     
1 62323U 24240A   26064.64836210  .00000070  00000+0  12895-3 0  9990
2 62323  86.5030  18.1438 0001948  85.7365 274.3992 13.24420563 58932
HULIANWANG DIGUI-02     
1 62324U 24240B   26064.58027541  .00000074  00000+0  13816-3 0  9991
2 62324  86.5059  18.2969 0001875  89.5417 270.5932 13.24422147 58935
HULIANWANG DIGUI-03     
1 62325U 24240C   26064.64069017  .00000056  00000+0  96087-4 0  9995
2 62325  86.5013  18.0659 0002028  84.5741 275.5625 13.24422117 58937
HULIANWANG DIGUI-04     
1 62326U 24240D   26064.63316857  .00000050  00000+0  81518-4 0  9999
2 62326  86.5022  18.1002 0002058  85.2224 274.9145 13.24421841 58931
HULIANWANG DIGUI-05     
1 62327U 24240E   26064.62566240  .00000033  00000+0  43642-4 0  9999
2 62327  86.5074  18.3224 0002086  84.1472 275.9900 13.24421053 58936
HULIANWANG DIGUI-06     
1 62328U 24240F   26064.61045242  .00000042  00000+0  63258-4 0  9998
2 62328  86.5013  18.0461 0002041  88.5230 271.6137 13.24422989 58935
HULIANWANG DIGUI-07     
1 62329U 24240G   26064.60299502  .00000067  00000+0  12103-3 0  9997
2 62329  86.4984  17.9167 0002023  86.8579 273.2786 13.24421160 58938
HULIANWANG DIGUI-08     
1 62330U 24240H   26064.61812439  .00000038  00000+0  55409-4 0  9995
2 62330  86.5066  18.2823 0002132  85.2777 274.8600 13.24420995 58936
HULIANWANG DIGUI-09     
1 62331U 24240J   26064.59536848  .00000064  00000+0  11593-3 0  9994
2 62331  86.5032  18.1851 0001981  88.8592 271.2769 13.24422319 58923
HULIANWANG DIGUI-10     
1 62332U 24240K   26064.58785430  .00000077  00000+0  14495-3 0  9995
2 62332  86.5062  18.3102 0001974  90.7820 269.3540 13.24421721 58927
HULIANWANG DIGUI-11     
1 62971U 25030A   26064.56284961 -.00000082  00000+0  89760-4 0  9998
2 62971  49.9992 247.4997 0000737 167.6146 192.4745 13.29337798 52077
HULIANWANG DIGUI-12     
1 62972U 25030B   26064.57108984 -.00000093  00000+0  67335-4 0  9996
2 62972  50.0008 247.5891 0000881 162.6209 197.4693 13.29339914 52077
HULIANWANG DIGUI-13     
1 62973U 25030C   26064.55446423 -.00000088  00000+0  77427-4 0  9995
2 62973  50.0011 247.5144 0000709 154.2237 205.8670 13.29337912 52075
HULIANWANG DIGUI-14     
1 62974U 25030D   26064.60464203 -.00000089  00000+0  75280-4 0  9994
2 62974  50.0016 247.1326 0000796 153.5751 206.5162 13.29337756 52089
HULIANWANG DIGUI-15     
1 62975U 25030E   26064.62132490 -.00000086  00000+0  81111-4 0  9994
2 62975  50.0012 247.2041 0000694 162.1321 197.9576 13.29337959 52084
HULIANWANG DIGUI-16     
1 62976U 25030F   26064.59623821 -.00000096  00000+0  61431-4 0  9998
2 62976  50.0034 247.1419 0000790 150.9286 209.1631 13.29338444 52087
