[{"OBJECT_NAME":"HULIANWANG DIGUI-01","OBJECT_ID":"2024-240A","EPOCH":"2026-03-05T15:33:38.485440","MEAN_MOTION":13.24420563,"ECCENTRICITY":0.00019485,"INCLINATION":86.503,"RA_OF_ASC_NODE":18.1438,"ARG_OF_PERICENTER":85.7365,"MEAN_ANOMALY":274.3992,"EPHEMERIS_TYPE":0,"CLASSIFICATION_TYPE":"U","NORAD_CAT_ID":62323,"ELEMENT_SET_NO":999,"REV_AT_EPOCH":5893,"BSTAR":0.00012894656,"MEAN_MOTION_DOT":7.0e-7,"MEAN_MOTION_DDOT":0},{"OBJECT_NAME":"HULIANWANG DIGUI-02","OBJECT_ID":"2024-240B","EPOCH":"2026-03-05T13:55:35.795424","MEAN_MOTION":13.24422147,"ECCENTRICITY":0.00018759,"INCLINATION":86.5059,"RA_OF_ASC_NODE":18.2969,"ARG_OF_PERICENTER":89.5417,"MEAN_ANOMALY":270.5932,"EPHEMERIS_TYPE":0,"CLASSIFICATION_TYPE":"U","NORAD_CAT_ID":62324,"ELEMENT_SET_NO":999,"REV_AT_EPOCH":5893,"BSTAR":0.00013815594,"MEAN_MOTION_DOT":7.4e-7,"MEAN_MOTION_DDOT":0},{"OBJECT_NAME":"HULIANWANG DIGUI-03","OBJECT_ID":"2024-240C","EPOCH":"2026-03-05T15:22:35.630688","MEAN_MOTION":13.24422117,"ECCENTRICITY":0.00020289,"INCLINATION":86.5013,"RA_OF_ASC_NODE":18.0659,"ARG_OF_PERICENTER":84.5741,"MEAN_ANOMALY":275.5625,"EPHEMERIS_TYPE":0,"CLASSIFICATION_TYPE":"U","NORAD_CAT_ID":62325,"ELEMENT_SET_NO":999,"REV_AT_EPOCH":5893,"BSTAR":9.6087476e-5,"MEAN_MOTION_DOT":5.6e-7,"MEAN_MOTION_DDOT":0},{"OBJECT_NAME":"HULIANWANG DIGUI-04","OBJECT_ID":"2024-240D","EPOCH":"2026-03-05T15:11:45.764448","MEAN_MOTION":13.24421841,"ECCENTRICITY":0.00020585,"INCLINATION":86.5022,"RA_OF_ASC_NODE":18.1002,"ARG_OF_PERICENTER":85.2224,"MEAN_ANOMALY":274.9145,"EPHEMERIS_TYPE":0,"CLASSIFICATION_TYPE":"U","NORAD_CAT_ID":62326,"ELEMENT_SET_NO":999,"REV_AT_EPOCH":5893,"BSTAR":8.1518108e-5,"MEAN_MOTION_DOT":5.0e-7,"MEAN_MOTION_DDOT":0},{"OBJECT_NAME":"HULIANWANG DIGUI-05","OBJECT_ID":"2024-240E","EPOCH":"2026-03-05T15:00:57.231360","MEAN_MOTION":13.24421053,"ECCENTRICITY":0.00020863,"INCLINATION":86.5074,"RA_OF_ASC_NODE":18.3224,"ARG_OF_PERICENTER":84.1472,"MEAN_ANOMALY":275.99,"EPHEMERIS_TYPE":0,"CLASSIFICATION_TYPE":"U","NORAD_CAT_ID":62327,"ELEMENT_SET_NO":999,"REV_AT_EPOCH":5893,"BSTAR":4.3641605e-5,"MEAN_MOTION_DOT":3.3e-7,"MEAN_MOTION_DDOT":0},{"OBJECT_NAME":"HULIANWANG DIGUI-06","OBJECT_ID":"2024-240F","EPOCH":"2026-03-05T14:39:03.089088","MEAN_MOTION":13.24422989,"ECCENTRICITY":0.00020414,"INCLINATION":86.5013,"RA_OF_ASC_NODE":18.0461,"ARG_OF_PERICENTER":88.523,"MEAN_ANOMALY":271.6137,"EPHEMERIS_TYPE":0,"CLASSIFICATION_TYPE":"U","NORAD_CAT_ID":62328,"ELEMENT_SET_NO":999,"REV_AT_EPOCH":5893,"BSTAR":6.3257908e-5,"MEAN_MOTION_DOT":4.2e-7,"MEAN_MOTION_DDOT":0},{"OBJECT_NAME":"HULIANWANG DIGUI-07","OBJECT_ID":"2024-240G","EPOCH":"2026-03-05T14:28:18.769728","MEAN_MOTION":13.2442116,"ECCENTRICITY":0.00020237,"INCLINATION":86.4984,"RA_OF_ASC_NODE":17.9167,"ARG_OF_PERICENTER":86.8579,"MEAN_ANOMALY":273.2786,"EPHEMERIS_TYPE":0,"CLASSIFICATION_TYPE":"U","NORAD_CAT_ID":62329,"ELEMENT_SET_NO":999,"REV_AT_EPOCH":5893,"BSTAR":0.00012102822,"MEAN_MOTION_DOT":6.7e-7,"MEAN_MOTION_DDOT":0},{"OBJECT_NAME":"HULIANWANG DIGUI-08","OBJECT_ID":"2024-240H","EPOCH":"2026-03-05T14:50:05.947296","MEAN_MOTION":13.24420995,"ECCENTRICITY":0.00021322,"INCLINATION":86.5066,"RA_OF_ASC_NODE":18.2823,"ARG_OF_PERICENTER":85.2777,"MEAN_ANOMALY":274.86,"EPHEMERIS_TYPE":0,"CLASSIFICATION_TYPE":"U","NORAD_CAT_ID":62330,"ELEMENT_SET_NO":999,"REV_AT_EPOCH":5893,"BSTAR":5.5409062e-5,"MEAN_MOTION_DOT":3.8e-7,"MEAN_MOTION_DDOT":0},{"OBJECT_NAME":"HULIANWANG DIGUI-09","OBJECT_ID":"2024-240J","EPOCH":"2026-03-05T14:17:19.836672","MEAN_MOTION":13.24422319,"ECCENTRICITY":0.00019814,"INCLINATION":86.5032,"RA_OF_ASC_NODE":18.1851,"ARG_OF_PERICENTER":88.8592,"MEAN_ANOMALY":271.2769,"EPHEMERIS_TYPE":0,"CLASSIFICATION_TYPE":"U","NORAD_CAT_ID":62331,"ELEMENT_SET_NO":999,"REV_AT_EPOCH":5892,"BSTAR":0.00011593453,"MEAN_MOTION_DOT":6.4e-7,"MEAN_MOTION_DDOT":0},{"OBJECT_NAME":"HULIANWANG DIGUI-10","OBJECT_ID":"2024-240K","EPOCH":"2026-03-05T14:06:30.611520","MEAN_MOTION":13.24421721,"ECCENTRICITY":0.00019741,"INCLINATION":86.5062,"RA_OF_ASC_NODE":18.3102,"ARG_OF_PERICENTER":90.782,"MEAN_ANOMALY":269.354,"EPHEMERIS_TYPE":0,"CLASSIFICATION_TYPE":"U","NORAD_CAT_ID":62332,"ELEMENT_SET_NO":999,"REV_AT_EPOCH":5892,"BSTAR":0.00014495064,"MEAN_MOTION_DOT":7.7e-7,"MEAN_MOTION_DDOT":0},{"OBJECT_NAME":"HULIANWANG DIGUI-11","OBJECT_ID":"2025-030A","EPOCH":"2026-03-05T13:30:30.206304","MEAN_MOTION":13.29337798,"ECCENTRICITY":7.378e-5,"INCLINATION":49.9992,"RA_OF_ASC_NODE":247.4997,"ARG_OF_PERICENTER":167.6146,"MEAN_ANOMALY":192.4745,"EPHEMERIS_TYPE":0,"CLASSIFICATION_TYPE":"U","NORAD_CAT_ID":62971,"ELEMENT_SET_NO":999,"REV_AT_EPOCH":5207,"BSTAR":8.9760029e-5,"MEAN_MOTION_DOT":-8.2e-7,"MEAN_MOTION_DDOT":0},{"OBJECT_NAME":"HULIANWANG DIGUI-12","OBJECT_ID":"2025-030B","EPOCH":"2026-03-05T13:42:22.162176","MEAN_MOTION":13.29339914,"ECCENTRICITY":8.811e-5,"INCLINATION":50.0008,"RA_OF_ASC_NODE":247.5891,"ARG_OF_PERICENTER":162.6209,"MEAN_ANOMALY":197.4693,"EPHEMERIS_TYPE":0,"CLASSIFICATION_TYPE":"U","NORAD_CAT_ID":62972,"ELEMENT_SET_NO":999,"REV_AT_EPOCH":5207,"BSTAR":6.733463e-5,"MEAN_MOTION_DOT":-9.3e-7,"MEAN_MOTION_DDOT":0},{"OBJECT_NAME":"HULIANWANG DIGUI-13","OBJECT_ID":"2025-030C","EPOCH":"2026-03-05T13:18:25.709472","MEAN_MOTION":13.29337912,"ECCENTRICITY":7.099e-5,"INCLINATION":50.0011,"RA_OF_ASC_NODE":247.5144,"ARG_OF_PERICENTER":154.2237,"MEAN_ANOMALY":205.867,"EPHEMERIS_TYPE":0,"CLASSIFICATION_TYPE":"U","NORAD_CAT_ID":62973,"ELEMENT_SET_NO":999,"REV_AT_EPOCH":5207,"BSTAR":7.7427463e-5,"MEAN_MOTION_DOT":-8.8e-7,"MEAN_MOTION_DDOT":0},{"OBJECT_NAME":"HULIANWANG DIGUI-14","OBJECT_ID":"2025-030D","EPOCH":"2026-03-05T14:30:41.071392","MEAN_MOTION":13.29337756,"ECCENTRICITY":7.962e-5,"INCLINATION":50.0016,"RA_OF_ASC_NODE":247.1326,"ARG_OF_PERICENTER":153.5751,"MEAN_ANOMALY":206.5162,"EPHEMERIS_TYPE":0,"CLASSIFICATION_TYPE":"U","NORAD_CAT_ID":62974,"ELEMENT_SET_NO":999,"REV_AT_EPOCH":5208,"BSTAR":7.5279526e-5,"MEAN_MOTION_DOT":-8.9e-7,"MEAN_MOTION_DDOT":0},{"OBJECT_NAME":"HULIANWANG DIGUI-15","OBJECT_ID":"2025-030E","EPOCH":"2026-03-05T14:54:42.471360","MEAN_MOTION":13.29337959,"ECCENTRICITY":6.947e-5,"INCLINATION":50.0012,"RA_OF_ASC_NODE":247.2041,"ARG_OF_PERICENTER":162.1321,"MEAN_ANOMALY":197.9576,"EPHEMERIS_TYPE":0,"CLASSIFICATION_TYPE":"U","NORAD_CAT_ID":62975,"ELEMENT_SET_NO":999,"REV_AT_EPOCH":5208,"BSTAR":8.1111284e-5,"MEAN_MOTION_DOT":-8.6e-7,"MEAN_MOTION_DDOT":0},{"OBJECT_NAME":"HULIANWANG DIGUI-16","OBJECT_ID":"2025-030F","EPOCH":"2026-03-05T14:18:34.981344","MEAN_MOTION":13.29338444,"ECCENTRICITY":7.904e-5,"INCLINATION":50.0034,"RA_OF_ASC_NODE":247.1419,"ARG_OF_PERICENTER":150.9286,"MEAN_ANOMALY":209.1631,"EPHEMERIS_TYPE":0,"CLASSIFICATION_TYPE":"U","NORAD_CAT_ID":62976,"ELEMENT_SET_NO":999,"REV_AT_EPOCH":5208,"BSTAR":6.1431252e-5,"MEAN_MOTION_DOT":-9.6e-7,"MEAN_MOTION_DDOT":0}]
